{
  "type": "FeatureCollection",
  "features": [
    {
      "type": "Feature",
      "properties": {
        "norad_id": 35580,
        "name": "COSMOS 2251 DEB",
        "group": "cosmos-2251-debris",
        "lat": 2.8571436024570693,
        "lon": 173.23280326750753,
        "alt_km": 1157.0497900485898,
        "timestamp": "2025-12-16T10:53:45.867357+00:00",
        "meta_object_name": "COSMOS 2251 DEB",
        "meta_object_id": "1993-036ALX",
        "meta_epoch": "2025-12-15T21:00:04.999104",
        "meta_mean_motion": 13.83885531,
        "meta_eccentricity": 0.02811057,
        "meta_inclination": 73.9013,
        "meta_ra_of_asc_node": 173.3912,
        "meta_arg_of_pericenter": 177.9882,
        "meta_mean_anomaly": 182.2449,
        "meta_ephemeris_type": 0,
        "meta_classification_type": "U",
        "meta_norad_cat_id": 35580,
        "meta_element_set_no": 999,
        "meta_rev_at_epoch": 62300,
        "meta_bstar": 0.001547595,
        "meta_mean_motion_dot": 2.307e-05,
        "meta_mean_motion_ddot": 0,
        "tle_line1": "1 35580U 93036ALX 25349.87505786  .00002307  00000+0  15476-2 0  9997",
        "tle_line2": "2 35580  73.9013 173.3912 0281105 177.9882 182.2449 13.83885531623007"
      },
      "geometry": {
        "type": "Point",
        "coordinates": [
          173.23280326750753,
          2.8571436024570693
        ]
      }
    },
    {
      "type": "Feature",
      "properties": {
        "norad_id": 35583,
        "name": "COSMOS 2251 DEB",
        "group": "cosmos-2251-debris",
        "lat": 37.09321899186758,
        "lon": -141.403190818397,
        "alt_km": 1330.5888317962272,
        "timestamp": "2025-12-16T10:53:45.867367+00:00",
        "meta_object_name": "COSMOS 2251 DEB",
        "meta_object_id": "1993-036AMA",
        "meta_epoch": "2025-12-15T08:07:13.110816",
        "meta_mean_motion": 13.55339959,
        "meta_eccentricity": 0.03853461,
        "meta_inclination": 73.9163,
        "meta_ra_of_asc_node": 207.8047,
        "meta_arg_of_pericenter": 231.6769,
        "meta_mean_anomaly": 124.9115,
        "meta_ephemeris_type": 0,
        "meta_classification_type": "U",
        "meta_norad_cat_id": 35583,
        "meta_element_set_no": 999,
        "meta_rev_at_epoch": 82447,
        "meta_bstar": 0.00076925209,
        "meta_mean_motion_dot": 8.34e-06,
        "meta_mean_motion_ddot": 0,
        "tle_line1": "1 35583U 93036AMA 25349.33834619  .00000834  00000+0  76925-3 0  9991",
        "tle_line2": "2 35583  73.9163 207.8047 0385346 231.6769 124.9115 13.55339959824476"
      },
      "geometry": {
        "type": "Point",
        "coordinates": [
          -141.403190818397,
          37.09321899186758
        ]
      }
    },
    {
      "type": "Feature",
      "properties": {
        "norad_id": 35585,
        "name": "COSMOS 2251 DEB",
        "group": "cosmos-2251-debris",
        "lat": -70.71225671126787,
        "lon": -142.5681588143367,
        "alt_km": 760.0872836292319,
        "timestamp": "2025-12-16T10:53:45.867378+00:00",
        "meta_object_name": "COSMOS 2251 DEB",
        "meta_object_id": "1993-036AMC",
        "meta_epoch": "2025-12-15T05:46:46.766784",
        "meta_mean_motion": 13.75256406,
        "meta_eccentricity": 0.03105425,
        "meta_inclination": 73.9727,
        "meta_ra_of_asc_node": 344.2358,
        "meta_arg_of_pericenter": 255.9946,
        "meta_mean_anomaly": 118.6807,
        "meta_ephemeris_type": 0,
        "meta_classification_type": "U",
        "meta_norad_cat_id": 35585,
        "meta_element_set_no": 999,
        "meta_rev_at_epoch": 64098,
        "meta_bstar": 0.00097189653,
        "meta_mean_motion_dot": 1.299e-05,
        "meta_mean_motion_ddot": 0,
        "tle_line1": "1 35585U 93036AMC 25349.24081906  .00001299  00000+0  97190-3 0  9999",
        "tle_line2": "2 35585  73.9727 344.2358 0310542 255.9946 118.6807 13.75256406640984"
      },
      "geometry": {
        "type": "Point",
        "coordinates": [
          -142.5681588143367,
          -70.71225671126787
        ]
      }
    },
    {
      "type": "Feature",
      "properties": {
        "norad_id": 35586,
        "name": "COSMOS 2251 DEB",
        "group": "cosmos-2251-debris",
        "lat": 42.590121464483545,
        "lon": 101.2561839677464,
        "alt_km": 812.7109728202677,
        "timestamp": "2025-12-16T10:53:45.867388+00:00",
        "meta_object_name": "COSMOS 2251 DEB",
        "meta_object_id": "1993-036AMD",
        "meta_epoch": "2025-12-14T14:41:57.929856",
        "meta_mean_motion": 13.52086543,
        "meta_eccentricity": 0.04045341,
        "meta_inclination": 74.0206,
        "meta_ra_of_asc_node": 299.4762,
        "meta_arg_of_pericenter": 174.414,
        "meta_mean_anomaly": 3.0917,
        "meta_ephemeris_type": 0,
        "meta_classification_type": "U",
        "meta_norad_cat_id": 35586,
        "meta_element_set_no": 999,
        "meta_rev_at_epoch": 60407,
        "meta_bstar": 0.00036473262,
        "meta_mean_motion_dot": 3.81e-06,
        "meta_mean_motion_ddot": 0,
        "tle_line1": "1 35586U 93036AMD 25348.61247604  .00000381  00000+0  36473-3 0  9997",
        "tle_line2": "2 35586  74.0206 299.4762 0404534 174.4140   3.0917 13.52086543604072"
      },
      "geometry": {
        "type": "Point",
        "coordinates": [
          101.2561839677464,
          42.590121464483545
        ]
      }
    },
    {
      "type": "Feature",
      "properties": {
        "norad_id": 35587,
        "name": "COSMOS 2251 DEB",
        "group": "cosmos-2251-debris",
        "lat": 18.397656733412372,
        "lon": -134.28162569130558,
        "alt_km": 639.5369931200103,
        "timestamp": "2025-12-16T10:53:45.867398+00:00",
        "meta_object_name": "COSMOS 2251 DEB",
        "meta_object_id": "1993-036AME",
        "meta_epoch": "2025-12-14T20:37:50.785248",
        "meta_mean_motion": 14.71528954,
        "meta_eccentricity": 0.01025521,
        "meta_inclination": 74.0053,
        "meta_ra_of_asc_node": 54.2968,
        "meta_arg_of_pericenter": 241.4805,
        "meta_mean_anomaly": 117.6013,
        "meta_ephemeris_type": 0,
        "meta_classification_type": "U",
        "meta_norad_cat_id": 35587,
        "meta_element_set_no": 999,
        "meta_rev_at_epoch": 66377,
        "meta_bstar": 0.00024093768,
        "meta_mean_motion_dot": 1.587e-05,
        "meta_mean_motion_ddot": 0,
        "tle_line1": "1 35587U 93036AME 25348.85961557  .00001587  00000+0  24094-3 0  9999",
        "tle_line2": "2 35587  74.0053  54.2968 0102552 241.4805 117.6013 14.71528954663776"
      },
      "geometry": {
        "type": "Point",
        "coordinates": [
          -134.28162569130558,
          18.397656733412372
        ]
      }
    },
    {
      "type": "Feature",
      "properties": {
        "norad_id": 35593,
        "name": "COSMOS 2251 DEB",
        "group": "cosmos-2251-debris",
        "lat": 39.21601605588927,
        "lon": -64.77171259606132,
        "alt_km": 832.8985753269963,
        "timestamp": "2025-12-16T10:53:45.867408+00:00",
        "meta_object_name": "COSMOS 2251 DEB",
        "meta_object_id": "1993-036AML",
        "meta_epoch": "2025-12-15T04:23:19.904064",
        "meta_mean_motion": 14.25607605,
        "meta_eccentricity": 0.01051999,
        "meta_inclination": 74.0859,
        "meta_ra_of_asc_node": 284.0519,
        "meta_arg_of_pericenter": 290.0148,
        "meta_mean_anomaly": 68.9696,
        "meta_ephemeris_type": 0,
        "meta_classification_type": "U",
        "meta_norad_cat_id": 35593,
        "meta_element_set_no": 999,
        "meta_rev_at_epoch": 85100,
        "meta_bstar": 0.00058381828,
        "meta_mean_motion_dot": 1.439e-05,
        "meta_mean_motion_ddot": 0,
        "tle_line1": "1 35593U 93036AML 25349.18286926  .00001439  00000+0  58382-3 0  9996",
        "tle_line2": "2 35593  74.0859 284.0519 0105199 290.0148  68.9696 14.25607605851002"
      },
      "geometry": {
        "type": "Point",
        "coordinates": [
          -64.77171259606132,
          39.21601605588927
        ]
      }
    },
    {
      "type": "Feature",
      "properties": {
        "norad_id": 35594,
        "name": "COSMOS 2251 DEB",
        "group": "cosmos-2251-debris",
        "lat": 72.24761221017826,
        "lon": -146.15960592259293,
        "alt_km": 604.1365394521254,
        "timestamp": "2025-12-16T10:53:45.867418+00:00",
        "meta_object_name": "COSMOS 2251 DEB",
        "meta_object_id": "1993-036AMM",
        "meta_epoch": "2025-12-11T07:49:43.768128",
        "meta_mean_motion": 14.87869065,
        "meta_eccentricity": 0.00302327,
        "meta_inclination": 73.8067,
        "meta_ra_of_asc_node": 109.3962,
        "meta_arg_of_pericenter": 220.7507,
        "meta_mean_anomaly": 139.1411,
        "meta_ephemeris_type": 0,
        "meta_classification_type": "U",
        "meta_norad_cat_id": 35594,
        "meta_element_set_no": 999,
        "meta_rev_at_epoch": 88164,
        "meta_bstar": 0.003372362,
        "meta_mean_motion_dot": 0.00031222,
        "meta_mean_motion_ddot": 0,
        "tle_line1": "1 35594U 93036AMM 25345.32620102  .00031222  00000+0  33724-2 0  9992",
        "tle_line2": "2 35594  73.8067 109.3962 0030232 220.7507 139.1411 14.87869065881643"
      },
      "geometry": {
        "type": "Point",
        "coordinates": [
          -146.15960592259293,
          72.24761221017826
        ]
      }
    }
  ]
}